LEMUR-2-PETERG          
1 42841U 17042S   26068.48235713  .00023240  00000+0  81076-3 0  9993
2 42841  97.3980 253.6596 0003700 341.6938  18.4169 15.29611459473171
STARLINK-33872          
1 64189U 25113V   26068.44848278  .00031019  00000+0  10544-2 0  9996
2 64189  53.1605  91.8609 0001442  59.9173 300.1971 15.30220217 44998
